IRIDIUM 8 [+]           
1 24792U 97020A   17195.79517604  .00000154  00000-0  48026-4 0  9998
2 24792  86.3976 307.1417 0002314  93.3465 266.7996 14.34216101 56928
IRIDIUM 7 [+]           
1 24793U 97020B   17195.85846635  .00000067  00000-0  16938-4 0  9995
2 24793  86.3981 307.4011 0002286  92.0943 268.0515 14.34220970 56935
IRIDIUM 6 [+]           
1 24794U 97020C   17195.85220770  .00000151  00000-0  46703-4 0  9999
2 24794  86.3978 307.3331 0002248  95.1470 264.9983 14.34215903 56926
IRIDIUM 5 [+]           
1 24795U 97020D   17195.84591451  .00000180  00000-0  57294-4 0  9995
2 24795  86.3992 307.3487 0002274  97.9710 262.1744 14.34216120 57200
IRIDIUM 4 [-]           
1 24796U 97020E   17195.83248916  .00000103  00000-0  29317-4 0  9990
2 24796  86.3975 306.2676 0002261  92.1316  13.8311 14.35164098 57236
IRIDIUM 914 [-]         
1 24836U 97030A   17195.94275036  .00000104  00000-0  27479-4 0  9999
2 24836  86.3955 322.9061 0003193  62.7251 297.4272 14.38765956190831
IRIDIUM 12 [+]          
1 24837U 97030B   17195.89248153  .00000096  00000-0  27262-4 0  9994
2 24837  86.3969 338.5047 0002267  92.8756  64.1883 14.34214059 50638
IRIDIUM 10 [+]          
1 24839U 97030D   17195.87897595  .00000090  00000-0  24998-4 0  9991
2 24839  86.3968 338.4898 0002272  92.8344  60.2493 14.34216957 50904
IRIDIUM 13 [+]          
1 24840U 97030E   17195.79977045  .00000099  00000-0  25890-4 0  9994
2 24840  86.4251 338.6690 0002532  99.6909 260.4575 14.38686981 50913
IRIDIUM 16 [-]          
1 24841U 97030F   17195.85074618  .00000135  00000-0  39051-4 0  9991
2 24841  86.4049 338.4236 0002836 144.1643 215.9745 14.36722581 51292
IRIDIUM 911 [-]         
1 24842U 97030G   17195.94759244  .00000113  00000-0  26553-4 0  9996
2 24842  86.4476 339.1507 0014568   8.0868 352.0566 14.44968645 56963
IRIDIUM 15 [+]          
1 24869U 97034A   17195.57351155 -.00000066  00000-0 -27970-4 0  9990
2 24869  86.4174  10.6180 0001669  85.7752 274.3637 14.38612616 47600
IRIDIUM 17 [-]          
1 24870U 97034B   17195.62855868  .00000083  00000-0  21955-4 0  9992
2 24870  86.3959   8.6728 0003833 106.9219 253.2398 14.35764731 48116
IRIDIUM 920 [-]         
1 24871U 97034C   17195.90016997  .00000090  00000-0  22502-4 0  9993
2 24871  86.3980 354.6774 0009715 244.3684 115.6511 14.39478638 50072
IRIDIUM 18 [+]          
1 24872U 97034D   17195.63673359 -.00000055  00000-0 -24357-4 0  9998
2 24872  86.4200  10.5938 0001468  89.0498 271.0869 14.38612952 47834
IRIDIUM 921 [-]         
1 24873U 97034E   17195.85121545  .00000283  00000-0  14639-4 0  9991
2 24873  86.3918  52.9097 0005175 277.6117  82.4533 15.11389006 91999
IRIDIUM 26 [-]          
1 24903U 97043A   17194.23320944 -.00000010  00000-0 -10373-4 0  9991
2 24903  86.3964 243.8803 0002137  95.3907 264.7533 14.35261547 41700
IRIDIUM 25 [+]          
1 24904U 97043B   17195.62978992  .00000093  00000-0  26227-4 0  9992
2 24904  86.3951 243.9426 0002213  93.9595 266.1853 14.34217811 41559
IRIDIUM 46 [+]          
1 24905U 97043C   17195.64241948  .00000088  00000-0  24287-4 0  9997
2 24905  86.3966 243.9205 0001795  96.4185 263.7215 14.34219430 41765
IRIDIUM 23 [+]          
1 24906U 97043D   17195.66555028  .00000080  00000-0  21447-4 0  9994
2 24906  86.3965 243.9815 0002169  90.9009  61.3048 14.34221185 41498
IRIDIUM 22 [+]          
1 24907U 97043E   17195.68046797  .00000074  00000-0  19401-4 0  9995
2 24907  86.3962 244.5939 0002266  92.2401 267.9054 14.34219536 41789
DUMMY MASS 1 [-]        
1 24925U 97048A   17195.94215145  .00000066  00000-0  44300-5 0  9992
2 24925  86.3336  30.6151 0005218 319.5000  40.5834 14.85137969 75462
DUMMY MASS 2 [-]        
1 24926U 97048B   17195.58063485  .00000055  00000-0  32293-5 0  9997
2 24926  86.3335  31.9025 0006317 328.8547  31.2302 14.84906012 75252
IRIDIUM 29 [-]          
1 24944U 97051A   17195.73274990  .00000095  00000-0  26818-4 0  9992
2 24944  86.3968 275.3450 0002306  87.6878 272.4582 14.34608732 38162
IRIDIUM 32 [+]          
1 24945U 97051B   17195.70931974  .00000119  00000-0  35554-4 0  9996
2 24945  86.3964 275.5824 0002258  92.4586 267.6869 14.34216989 38367
IRIDIUM 33 [-]          
1 24946U 97051C   17195.75440339  .00000075  00000-0  20112-4 0  9997
2 24946  86.3883 275.1844 0009216 141.4998 218.6857 14.33558682 37976
IRIDIUM 28 [-]          
1 24948U 97051E   17195.93914628  .00000090  00000-0  24245-4 0  9994
2 24948  86.3972 274.4740 0002223 101.4708 258.6738 14.35557298 38494
IRIDIUM 30 [+]          
1 24949U 97051F   17195.77276627  .00000009  00000-0 -38730-5 0  9993
2 24949  86.3990 275.6904 0002381 107.8798 252.2657 14.34225842 38142
IRIDIUM 31 [+]          
1 24950U 97051G   17195.69663163  .00000153  00000-0  47493-4 0  9995
2 24950  86.3964 275.6821 0002447  92.5441 267.6035 14.34221071 38433
IRIDIUM 19 [+]          
1 24965U 97056A   17195.82054782  .00000160  00000-0  50064-4 0  9998
2 24965  86.3976 307.1427 0002293  94.1984 265.9474 14.34215951 36519
IRIDIUM 35 [+]          
1 24966U 97056B   17195.83322169  .00000153  00000-0  47476-4 0  9992
2 24966  86.3974 307.1310 0002294  94.3490 265.7968 14.34216447 36218
IRIDIUM 36 [-]          
1 24967U 97056C   17195.87324545  .00000096  00000-0  26387-4 0  9991
2 24967  86.3988 306.1497 0002405  92.4292 267.7180 14.35610572 36836
IRIDIUM 37 [+]          
1 24968U 97056D   17195.87762638  .00000157  00000-0  49001-4 0  9997
2 24968  86.3977 307.2997 0002304  93.6147 266.5312 14.34217098 36291
IRIDIUM 34 [+]          
1 24969U 97056E   17195.82688899  .00000153  00000-0  47676-4 0  9991
2 24969  86.3977 307.2579 0002341  94.5868 265.5595 14.34216326 36508
IRIDIUM 43 [-]          
1 25039U 97069A   17195.90753874  .00029783 -78351-6  18401-3 0  9993
2 25039  86.4045   6.0744 0301557 298.6486  58.4741 15.34320809 30909
IRIDIUM 41 [+]          
1 25040U 97069B   17195.59909095 -.00000067  00000-0 -30944-4 0  9990
2 25040  86.3951  10.4962 0001962  89.6158 270.5263 14.34212810 29947
IRIDIUM 40 [-]          
1 25041U 97069C   17195.92737040  .00051932 -63341-6  48231-3 0  9993
2 25041  86.3890   3.9230 0276890 173.4890 187.0087 15.31579337 31198
IRIDIUM 39 [B]          
1 25042U 97069D   17195.62428910  .00000115  00000-0  26454-4 0  9991
2 25042  86.3917   7.5021 0017603 216.2322 143.7689 14.46165777 30424
IRIDIUM 38 [-]          
1 25043U 97069E   17195.60498420  .00000087  00000-0  23084-4 0  9997
2 25043  86.3959   7.6399 0002406 126.6482 233.4937 14.36037685 30402
IRIDIUM 42 [-]          
1 25077U 97077A   17195.74164926  .00000087  00000-0  23704-4 0  9998
2 25077  86.3962  10.3801 0002171 103.7467 256.3970 14.34515494 26133
IRIDIUM 44 [-]          
1 25078U 97077B   17195.76844601  .00000109  00000-0  29465-4 0  9991
2 25078  86.3963 359.8760 0002913 128.4427 231.7033 14.38131870 27565
IRIDIUM 45 [+]          
1 25104U 97082A   17195.76004728  .00000075  00000-0  19654-4 0  9996
2 25104  86.3962 275.6852 0002054 119.5653 240.5748 14.34216102 24060
IRIDIUM 24 [-]          
1 25105U 97082B   17195.70217934  .00000067  00000-0  15151-4 0  9995
2 25105  86.3915 223.8340 0009412 250.4193 109.5990 14.39862386 26561
IRIDIUM 47 [+]          
1 25106U 97082C   17195.64876230  .00000091  00000-0  25285-4 0  9995
2 25106  86.3948 243.8049 0002153  90.3422 269.8020 14.34219552 24015
IRIDIUM 49 [+]          
1 25108U 97082E   17195.68689088  .00000080  00000-0  21638-4 0  9990
2 25108  86.3951 243.8923 0002198  91.7015  39.7264 14.34219361 24050
IRIDIUM 52 [+]          
1 25169U 98010A   17195.90011674  .00000093  00000-0  26044-4 0  9994
2 25169  86.3973 338.7997 0002285  93.1997 266.9460 14.34214647 15478
IRIDIUM 56 [+]          
1 25170U 98010B   17195.89375569  .00000145  00000-0  44619-4 0  9996
2 25170  86.3977 338.9079 0002189 100.0551 260.0892 14.34213804 15652
IRIDIUM 54 [+]          
1 25171U 98010C   17195.85579534  .00000092  00000-0  25691-4 0  9991
2 25171  86.3973 338.8393 0002282  92.5624 267.5833 14.34212826 15916
IRIDIUM 50 [+]          
1 25172U 98010D   17195.88741350  .00000098  00000-0  27986-4 0  9997
2 25172  86.3973 338.7821 0002292  90.6314 269.5144 14.34214050 15455
IRIDIUM 53 [+]          
1 25173U 98010E   17195.83679194  .00000099  00000-0  28191-4 0  9999
2 25173  86.3973 338.8098 0002286  93.1151 267.0306 14.34213222 15467
IRIDIUM 51 [S]          
1 25262U 98018A   17195.92836767  .00000192  00000-0  61371-4 0  9998
2 25262  86.4001 307.4348 0001861  84.7217 275.4191 14.34216274 14897
IRIDIUM 61 [+]          
1 25263U 98018B   17195.81420090  .00000156  00000-0  48615-4 0  9991
2 25263  86.3978 307.2917 0002270  94.1269 266.0186 14.34216155 10598
IRIDIUM 55 [+]          
1 25272U 98019A   17195.88690191  .00000141  00000-0  43378-4 0  9995
2 25272  86.3963 275.4162 0002261  93.0580 267.0875 14.34221378  9827
IRIDIUM 57 [-]          
1 25273U 98019B   17195.71324310  .00000024  00000-0  16369-5 0  9996
2 25273  86.3972 275.8005 0002329  90.5113 269.6349 14.34268670  9793
IRIDIUM 58 [+]          
1 25274U 98019C   17195.86787814  .00000152  00000-0  47358-4 0  9998
2 25274  86.3969 275.9317 0002188  92.3732 267.7714 14.34221270  9821
IRIDIUM 59 [+]          
1 25275U 98019D   17195.73469806  .00000143  00000-0  44139-4 0  9997
2 25275  86.3965 275.8386 0002301  90.6500 269.4959 14.34216928 10099
IRIDIUM 60 [+]          
1 25276U 98019E   17195.81080762  .00000119  00000-0  35597-4 0  9998
2 25276  86.3961 275.4252 0002281  94.1858 265.9598 14.34216451  9815
IRIDIUM 62 [+]          
1 25285U 98021A   17195.56287243  .00000009  00000-0 -38344-5 0  9999
2 25285  86.3957 212.4581 0002194  88.3999 271.7448 14.34217606  8956
IRIDIUM 63 [-]          
1 25286U 98021B   17195.91615135  .00000074  00000-0  19251-4 0  9990
2 25286  86.3987 212.7220 0002260  85.2840 330.8127 14.34669962  8742
